SL-3 R/B                
1 19046U 88032B   18286.93761080 -.00000124  00000-0 -47642-5 0  9997
2 19046  97.4645 323.0185 0037739 127.7779 232.6875 15.02466063644985
SL-16 R/B               
1 19120U 88039B   18287.53094699 -.00000011  00000-0  17590-4 0  9991
2 19120  71.0173  21.5165 0021511 171.6630 188.4857 14.19188220575103
COSMOS 1953             
1 19210U 88050A   18286.96637531  .00000025  00000-0 -32061-6 0  9995
2 19210  82.5143 284.1820 0014421  54.9356 305.3221 15.05642022629490
SL-8 R/B                
1 19257U 88053B   18286.93868475 -.00000002  00000-0  82063-5 0  9990
2 19257  74.0503  47.1712 0020327 181.1910 314.5912 14.37415170588270
COSMOS 1975             
1 19573U 88093A   18287.42877890  .00000344  00000-0  22425-4 0  9994
2 19573  82.5209 236.8167 0015895  89.4954 270.8093 15.04553018632612
SL-14 R/B               
1 19574U 88093B   18286.91524034  .00000092  00000-0  83293-5 0  9998
2 19574  82.5334  52.7913 0020692 325.1366 174.4455 14.83277309600061
SL-16 R/B               
1 19650U 88102B   18286.91957084 -.00000287  00000-0 -12158-3 0  9997
2 19650  70.9974  77.9282 0013992 176.0634 184.0602 14.15773930544188
INTERCOSMOS 24          
1 20261U 89080A   18286.88436872  .00000060  00000-0  87787-5 0  9995
2 20261  82.6015  56.6882 1204208  61.2288 310.4392 12.56014874326689
SL-14 R/B               
1 20262U 89080C   18286.89667378  .00000040  00000-0  10193-4 0  9998
2 20262  82.5896 106.2861 1236534 233.7488 114.3080 12.48903649322522
DELTA 1 R/B             
1 20323U 89089B   18286.89607498  .00000043  00000-0  20378-4 0  9991
2 20323  97.0948 161.7404 0071919   0.6770 359.4511 14.48274335504209
DELTA 2 R/B(1)          
1 20453U 90008B   18287.17623060  .00000943  00000-0  55095-4 0  9996
2 20453  35.6260 263.6898 0285567 238.1060 119.1574 14.84400705520135
COSMOS 2058             
1 20465U 90010A   18287.14210006  .00000350  00000-0  27425-4 0  9999
2 20465  82.4882 142.4529 0016949 103.1325 257.1791 14.97777974557777
SL-14 R/B               
1 20466U 90010B   18287.50017983  .00000063  00000-0  50390-5 0  9998
2 20466  82.5002 279.4269 0020381 183.4458 176.6619 14.81335912549194
SL-14 R/B               
1 20511U 90018B   18286.93024106  .00000070  00000-0  61747-5 0  9994
2 20511  82.5249 223.6040 0016748 331.4934  93.5314 14.79992914522516
HST                     
1 20580U 90037B   18287.73800422  .00000497  00000-0  19437-4 0  9994
2 20580  28.4714  44.7683 0002562 348.0029  12.0489 15.09111397363548
SL-16 R/B               
1 20625U 90046B   18286.94292992 -.00000292  00000-0 -12726-3 0  9991
2 20625  70.9996 213.8134 0011761  92.4784 267.7685 14.14634173465997
COSMOS 2084             
1 20663U 90055A   18287.54066918  .00000177  00000-0  33771-4 0  9991
2 20663  62.7940  51.1695 0110152 138.7045 222.2446 14.91896268532064
SL-6 R/B(2)             
1 20666U 90055D   18287.50021218 -.00000001  00000-0  18226-4 0  9999
2 20666  62.7860 329.0226 0079627 161.3661 199.0378 14.92178988533443
SL-8 R/B                
1 20775U 90078B   18286.79895198  .00001282  00000-0  63168-4 0  9997
2 20775  82.9322  11.1304 0579612 290.1482  63.8269 14.32554463417963
SL-8 R/B                
1 21088U 91006B   18287.39869197  .00000059  00000-0  44134-4 0  9997
2 21088  82.9464  20.2685 0023425  47.4553 357.3245 13.77097659392244
OKEAN-3                 
1 21397U 91039A   18287.54247955  .00000327  00000-0  29050-4 0  9993
2 21397  82.5245  38.2381 0019186  60.0535 300.2587 14.92720651482038
COSMOS 2151             
1 21422U 91042A   18287.17353878  .00000209  00000-0  18045-4 0  9998
2 21422  82.4996 145.8315 0015535 115.5307 244.7521 14.91989555480664
SL-14 R/B               
1 21423U 91042B   18286.89579731  .00000076  00000-0  70144-5 0  9996
2 21423  82.4951 229.3730 0019130 104.6725 255.6610 14.79744202474110
ERS-1                   
1 21574U 91050A   18286.90849085  .00000024  00000-0  22622-4 0  9996
2 21574  98.5157 232.9891 0032238 313.2160  46.6335 14.37666968427101
ARIANE 40 R/B           
1 21610U 91050F   18287.20500625  .00000012  00000-0  17615-4 0  9998
2 21610  98.5428 349.9415 0002143 305.7997 118.2709 14.40851536429812
INTERCOSMOS 25          
1 21819U 91086A   18286.93958730  .00000362  00000-0  66824-4 0  9995
2 21819  82.5908 132.9891 1516771 136.8623 236.1916 12.04946338170517
SL-14 R/B               
1 21820U 91086B   18286.92227414  .00000158  00000-0  29319-4 0  9995
2 21820  82.5647 193.1165 1576989 344.4182  11.3158 11.93409836164480
SL-8 R/B                
1 21876U 92008B   18286.96266556 -.00000019  00000-0 -36184-4 0  9991
2 21876  82.9231 117.6631 0035792 122.6633 345.1276 13.75628673337666
SL-8 R/B                
1 21938U 92020B   18286.73998052  .00000031  00000-0  17027-4 0  9999
2 21938  82.9337   1.4706 0027861 283.4961 188.2996 13.75269000329451
SL-16 R/B               
1 22220U 92076B   18286.94799233  .00000155  00000-0  10195-3 0  9993
2 22220  70.9982 120.9368 0015055 258.1402 203.3873 14.16437483338946
SL-16 R/B               
1 22285U 92093B   18287.18945891 -.00000305  00000-0 -13295-3 0  9996
2 22285  71.0202 276.9521 0001945 132.4119 227.7169 14.15026729331003
COSMOS 2228             
1 22286U 92094A   18287.12735917  .00000203  00000-0  19434-4 0  9995
2 22286  82.5173 277.6363 0020104 318.1906  41.7774 14.87977903394457
SL-16 R/B               
1 22566U 93016B   18286.90074106  .00000227  00000-0  14195-3 0  9996
2 22566  71.0053 131.5669 0008584 124.3441 235.8495 14.14952160319680
COSMOS 2242             
1 22626U 93024A   18287.18155443  .00000205  00000-0  19669-4 0  9995
2 22626  82.5195 305.4697 0017830 317.8161  42.1684 14.87840749378117
SL-16 R/B               
1 22803U 93059B   18287.21133193 -.00000238  00000-0 -94856-4 0  9991
2 22803  70.9899 309.4739 0017154   0.1960 359.9167 14.16801161296846
ARIANE 40 R/B           
1 22830U 93061H   18287.54237016 -.00000051  00000-0 -18287-5 0  9997
2 22830  98.8483 318.1267 0010078 317.2048  42.8349 14.31419823307530
COSMOS 2278             
1 23087U 94023A   18286.88086874 -.00000128  00000-0 -42737-4 0  9992
2 23087  71.0522  68.0194 0009907 208.4309 151.6274 14.13768546262616
SL-16 R/B               
1 23088U 94023B   18287.20724276  .00000281  00000-0  17087-3 0  9992
2 23088  71.0014 346.1649 0001211  79.0125 281.1134 14.14668649263996
SL-16 R/B               
1 23343U 94074B   18287.20032615  .00000026  00000-0  11174-4 0  9990
2 23343  98.0910 332.2673 0006074 329.6878  71.0275 14.76747775288263
SL-16 R/B               
1 23405U 94077B   18286.95719056  .00000132  00000-0  92784-4 0  9998
2 23405  70.9812 278.2691 0004648 290.0391  70.0231 14.15202598233709
ERS-2                   
1 23560U 95021A   18287.54958755  .00001401  00000-0  65133-4 0  9995
2 23560  98.5229 350.0346 0004826  97.6743 262.5038 15.22046087249039
ARIANE 40+ R/B          
1 23561U 95021B   18286.97319236  .00000023  00000-0  23118-4 0  9993
2 23561  98.7884 304.3652 0005840 267.5677 149.9316 14.37891728230551
SL-16 R/B               
1 23705U 95058B   18286.87968897 -.00000023  00000-0  12594-4 0  9992
2 23705  71.0198  94.2066 0014709 278.9403  81.0055 14.15113201185615
SL-16 R/B               
1 24298U 96051B   18287.13023823 -.00000101  00000-0 -28293-4 0  9996
2 24298  70.8269 121.9034 0017008 192.5482 167.5217 14.12403090140150
ORBVIEW 2 (SEASTAR)     
1 24883U 97037A   18286.91867286  .00000063  00000-0  38674-4 0  9994
2 24883  98.5705  34.9183 0003439 109.9476 250.2078 14.33472906120954
SL-16 R/B               
1 25400U 98043G   18286.85431496 -.00000008  00000-0  14713-4 0  9999
2 25400  98.5428 226.1864 0009318 328.2586  31.8031 14.25432954 53972
SL-16 R/B               
1 25407U 98045B   18286.91880348 -.00000262  00000-0 -10897-3 0  9990
2 25407  71.0082 104.8718 0008516 204.9937 155.0775 14.15778419 44387
ISS (ZARYA)             
1 25544U 98067A   18287.70571382  .00002129  00000-0  39808-4 0  9995
2 25544  51.6416 143.1173 0003445 287.0504 150.6208 15.53823327137100
SL-8 R/B                
1 25723U 99022C   18286.88950975  .00010892  00000-0  13064-3 0  9994
2 25723  48.4145  93.9166 0008853 223.1532 136.8723 15.61332032 81592
CZ-4B R/B               
1 25732U 99025C   18287.13580312 -.00000037  00000-0  41227-5 0  9995
2 25732  98.9920 299.8615 0037850 152.9320 248.8966 14.17654985  5203
OKEAN-O                 
1 25860U 99039A   18286.93255747  .00000045  00000-0  14085-4 0  9999
2 25860  98.2229 284.6452 0001655  71.8703 288.2686 14.76569236 35129
SL-16 R/B               
1 25861U 99039B   18287.55886980  .00000030  00000-0  11573-4 0  9991
2 25861  98.1653 268.9942 0014970 327.9666 144.5651 14.78498984 37341
TERRA                   
1 25994U 99068A   18287.46299358  .00000613  00000-0  14601-3 0  9998
2 25994  98.1973   0.5466 0001241  97.5766 262.5573 14.57127490  1198
ENVISAT                 
1 27386U 02009A   18287.51725976 -.00000021  00000-0  67135-5 0  9996
2 27386  98.1746 315.8921 0001154  94.3391  29.7662 14.37931673870676
IDEFIX & ARIANE 42P R/B 
1 27422U 02021B   18286.90498307 -.00000030  00000-0  42667-5 0  9991
2 27422  98.2690 266.3425 0011121 241.1597 118.8470 14.29265709857662
AQUA                    
1 27424U 02022A   18287.57358444  .00000123  00000-0  37416-4 0  9992
2 27424  98.2044 226.9458 0003052  76.5585  44.6291 14.57114343874817
CZ-4B R/B               
1 27432U 02024C   18286.93970870 -.00000023  00000-0  11518-4 0  9990
2 27432  99.0467 269.8960 0051440 104.6780 308.8243 14.14070657847085
MIDORI II (ADEOS-II)    
1 27597U 02056A   18286.88853172  .00000062  00000-0  42484-4 0  9994
2 27597  98.4357 242.7524 0001494  40.7255 319.4038 14.27368231824420
H-2A R/B                
1 27601U 02056E   18287.19186505  .00000039  00000-0  29685-4 0  9996
2 27601  98.3142 341.5765 0071057 299.4401 125.7672 14.31858979827074
